[{"OBJECT_NAME":"STARLINK-4705","OBJECT_ID":"2022-107Z","EPOCH":"2026-03-09T17:20:21.628320","MEAN_MOTION":15.08835563,"ECCENTRICITY":0.00020718,"INCLINATION":53.2164,"RA_OF_ASC_NODE":253.6179,"ARG_OF_PERICENTER":131.7665,"MEAN_ANOMALY":228.3505,"EPHEMERIS_TYPE":0,"CLASSIFICATION_TYPE":"U","NORAD_CAT_ID":53723,"ELEMENT_SET_NO":999,"REV_AT_EPOCH":19456,"BSTAR":0.00029867275,"MEAN_MOTION_DOT":4.468e-5,"MEAN_MOTION_DDOT":0},{"OBJECT_NAME":"LEMUR-2-UNTITLED-SC","OBJECT_ID":"2025-061A","EPOCH":"2026-03-09T21:24:38.388672","MEAN_MOTION":15.12695529,"ECCENTRICITY":0.00173727,"INCLINATION":97.5556,"RA_OF_ASC_NODE":45.0864,"ARG_OF_PERICENTER":245.603,"MEAN_ANOMALY":114.3388,"EPHEMERIS_TYPE":0,"CLASSIFICATION_TYPE":"U","NORAD_CAT_ID":63351,"ELEMENT_SET_NO":999,"REV_AT_EPOCH":5257,"BSTAR":0.00033295729,"MEAN_MOTION_DOT":5.783e-5,"MEAN_MOTION_DDOT":0}]
