STARLINK-4705           
1 53723U 22107Z   26068.72247255  .00004468  00000+0  29867-3 0  9994
2 53723  53.2164 253.6179 0002072 131.7665 228.3505 15.08835563194560
LEMUR-2-UNTITLED-SC     
1 63351U 25061A   26068.89211098  .00005783  00000+0  33296-3 0  9990
2 63351  97.5556  45.0864 0017373 245.6030 114.3388 15.12695529 52577
